CCSDS_OMM_VERS = 2.0
CREATION_DATE  = 
ORIGINATOR     = 

OBJECT_NAME    = SL-4 R/B
OBJECT_ID      = 2014-021B
CENTER_NAME    = EARTH
REF_FRAME      = TEME
TIME_SYSTEM    = UTC
MEAN_ELEMENT_THEORY = SGP/SGP4

EPOCH          = 2026-01-04T04:16:22.967040
MEAN_MOTION    = 15.37282910
ECCENTRICITY   = .01000103
INCLINATION    = 51.6091
RA_OF_ASC_NODE = 291.5035
ARG_OF_PERICENTER = 227.4099
MEAN_ANOMALY   = 131.8415

EPHEMERIS_TYPE = 0
CLASSIFICATION_TYPE = U
NORAD_CAT_ID   = 39679
ELEMENT_SET_NO = 999
REV_AT_EPOCH   = 64634
BSTAR          = .37936295E-3
MEAN_MOTION_DOT = .16278E-3
MEAN_MOTION_DDOT = 0

CCSDS_OMM_VERS = 2.0
CREATION_DATE  = 
ORIGINATOR     = 

OBJECT_NAME    = YAOGAN-29
OBJECT_ID      = 2015-069A
CENTER_NAME    = EARTH
REF_FRAME      = TEME
TIME_SYSTEM    = UTC
MEAN_ELEMENT_THEORY = SGP/SGP4

EPOCH          = 2026-01-04T06:56:40.009344
MEAN_MOTION    = 14.82912675
ECCENTRICITY   = .00016276
INCLINATION    = 98.0198
RA_OF_ASC_NODE = 32.5317
ARG_OF_PERICENTER = 146.6743
MEAN_ANOMALY   = 213.4573

EPHEMERIS_TYPE = 0
CLASSIFICATION_TYPE = U
NORAD_CAT_ID   = 41038
ELEMENT_SET_NO = 999
REV_AT_EPOCH   = 54633
BSTAR          = .11682214E-3
MEAN_MOTION_DOT = .893E-5
MEAN_MOTION_DDOT = 0

CCSDS_OMM_VERS = 2.0
CREATION_DATE  = 
ORIGINATOR     = 

OBJECT_NAME    = ASTRO-H (HITOMI)
OBJECT_ID      = 2016-012A
CENTER_NAME    = EARTH
REF_FRAME      = TEME
TIME_SYSTEM    = UTC
MEAN_ELEMENT_THEORY = SGP/SGP4

EPOCH          = 2026-01-04T05:45:15.856704
MEAN_MOTION    = 15.09531237
ECCENTRICITY   = .00095636
INCLINATION    = 31.0013
RA_OF_ASC_NODE = 52.3012
ARG_OF_PERICENTER = 45.2231
MEAN_ANOMALY   = 314.9184

EPHEMERIS_TYPE = 0
CLASSIFICATION_TYPE = U
NORAD_CAT_ID   = 41337
ELEMENT_SET_NO = 999
REV_AT_EPOCH   = 54248
BSTAR          = .27382763E-3
MEAN_MOTION_DOT = .4599E-4
MEAN_MOTION_DDOT = 0

CCSDS_OMM_VERS = 2.0
CREATION_DATE  = 
ORIGINATOR     = 

OBJECT_NAME    = CZ-2C R/B
OBJECT_ID      = 2018-054D
CENTER_NAME    = EARTH
REF_FRAME      = TEME
TIME_SYSTEM    = UTC
MEAN_ELEMENT_THEORY = SGP/SGP4

EPOCH          = 2026-01-04T08:08:09.040128
MEAN_MOTION    = 15.79787346
ECCENTRICITY   = .00117158
INCLINATION    = 35.1340
RA_OF_ASC_NODE = 27.0607
ARG_OF_PERICENTER = 10.3488
MEAN_ANOMALY   = 349.7486

EPHEMERIS_TYPE = 0
CLASSIFICATION_TYPE = U
NORAD_CAT_ID   = 43521
ELEMENT_SET_NO = 999
REV_AT_EPOCH   = 41862
BSTAR          = .75230392E-3
MEAN_MOTION_DOT = .147003E-2
MEAN_MOTION_DDOT = 0

CCSDS_OMM_VERS = 2.0
CREATION_DATE  = 
ORIGINATOR     = 

OBJECT_NAME    = SAOCOM 1A
OBJECT_ID      = 2018-076A
CENTER_NAME    = EARTH
REF_FRAME      = TEME
TIME_SYSTEM    = UTC
MEAN_ELEMENT_THEORY = SGP/SGP4

EPOCH          = 2026-01-04T06:54:38.693376
MEAN_MOTION    = 14.82163592
ECCENTRICITY   = .0001417
INCLINATION    = 97.8840
RA_OF_ASC_NODE = 193.3815
ARG_OF_PERICENTER = 82.3832
MEAN_ANOMALY   = 277.7542

EPHEMERIS_TYPE = 0
CLASSIFICATION_TYPE = U
NORAD_CAT_ID   = 43641
ELEMENT_SET_NO = 999
REV_AT_EPOCH   = 39182
BSTAR          = .37036455E-4
MEAN_MOTION_DOT = .243E-5
MEAN_MOTION_DDOT = 0

CCSDS_OMM_VERS = 2.0
CREATION_DATE  = 
ORIGINATOR     = 

OBJECT_NAME    = H-2A R/B
OBJECT_ID      = 2018-084L
CENTER_NAME    = EARTH
REF_FRAME      = TEME
TIME_SYSTEM    = UTC
MEAN_ELEMENT_THEORY = SGP/SGP4

EPOCH          = 2026-01-04T03:23:02.074272
MEAN_MOTION    = 15.38377352
ECCENTRICITY   = .00259443
INCLINATION    = 98.8759
RA_OF_ASC_NODE = 207.8802
ARG_OF_PERICENTER = 247.4620
MEAN_ANOMALY   = 112.3874

EPHEMERIS_TYPE = 0
CLASSIFICATION_TYPE = U
NORAD_CAT_ID   = 43682
ELEMENT_SET_NO = 999
REV_AT_EPOCH   = 39584
BSTAR          = .71243259E-3
MEAN_MOTION_DOT = .27228E-3
MEAN_MOTION_DDOT = 0

CCSDS_OMM_VERS = 2.0
CREATION_DATE  = 
ORIGINATOR     = 

OBJECT_NAME    = SAOCOM 1B
OBJECT_ID      = 2020-059A
CENTER_NAME    = EARTH
REF_FRAME      = TEME
TIME_SYSTEM    = UTC
MEAN_ELEMENT_THEORY = SGP/SGP4

EPOCH          = 2026-01-04T07:39:36.592128
MEAN_MOTION    = 14.82167364
ECCENTRICITY   = .00014303
INCLINATION    = 97.8837
RA_OF_ASC_NODE = 192.5118
ARG_OF_PERICENTER = 83.8515
MEAN_ANOMALY   = 276.2861

EPHEMERIS_TYPE = 0
CLASSIFICATION_TYPE = U
NORAD_CAT_ID   = 46265
ELEMENT_SET_NO = 999
REV_AT_EPOCH   = 28921
BSTAR          = .57493167E-4
MEAN_MOTION_DOT = .406E-5
MEAN_MOTION_DDOT = 0

CCSDS_OMM_VERS = 2.0
CREATION_DATE  = 
ORIGINATOR     = 

OBJECT_NAME    = CSS (TIANHE)
OBJECT_ID      = 2021-035A
CENTER_NAME    = EARTH
REF_FRAME      = TEME
TIME_SYSTEM    = UTC
MEAN_ELEMENT_THEORY = SGP/SGP4

EPOCH          = 2026-01-04T03:02:08.917440
MEAN_MOTION    = 15.60161015
ECCENTRICITY   = .0010598
INCLINATION    = 41.4654
RA_OF_ASC_NODE = 240.7044
ARG_OF_PERICENTER = 216.1453
MEAN_ANOMALY   = 143.8670

EPHEMERIS_TYPE = 0
CLASSIFICATION_TYPE = U
NORAD_CAT_ID   = 48274
ELEMENT_SET_NO = 999
REV_AT_EPOCH   = 26752
BSTAR          = .28185644E-3
MEAN_MOTION_DOT = .23377E-3
MEAN_MOTION_DDOT = 0

CCSDS_OMM_VERS = 2.0
CREATION_DATE  = 
ORIGINATOR     = 

OBJECT_NAME    = COSMOS 2550
OBJECT_ID      = 2021-056A
CENTER_NAME    = EARTH
REF_FRAME      = TEME
TIME_SYSTEM    = UTC
MEAN_ELEMENT_THEORY = SGP/SGP4

EPOCH          = 2026-01-04T05:20:38.046912
MEAN_MOTION    = 15.33829933
ECCENTRICITY   = .00084317
INCLINATION    = 67.1440
RA_OF_ASC_NODE = 235.9293
ARG_OF_PERICENTER = 269.5778
MEAN_ANOMALY   = 90.4411

EPHEMERIS_TYPE = 0
CLASSIFICATION_TYPE = U
NORAD_CAT_ID   = 48865
ELEMENT_SET_NO = 999
REV_AT_EPOCH   = 25357
BSTAR          = .732248E-6
MEAN_MOTION_DOT = -.168E-5
MEAN_MOTION_DDOT = 0

CCSDS_OMM_VERS = 2.0
CREATION_DATE  = 
ORIGINATOR     = 

OBJECT_NAME    = CZ-2C R/B
OBJECT_ID      = 2022-058K
CENTER_NAME    = EARTH
REF_FRAME      = TEME
TIME_SYSTEM    = UTC
MEAN_ELEMENT_THEORY = SGP/SGP4

EPOCH          = 2026-01-04T04:34:02.841888
MEAN_MOTION    = 15.49899082
ECCENTRICITY   = .00437682
INCLINATION    = 50.1911
RA_OF_ASC_NODE = 288.9531
ARG_OF_PERICENTER = 290.4488
MEAN_ANOMALY   = 69.1784

EPHEMERIS_TYPE = 0
CLASSIFICATION_TYPE = U
NORAD_CAT_ID   = 52794
ELEMENT_SET_NO = 999
REV_AT_EPOCH   = 20011
BSTAR          = .60828251E-3
MEAN_MOTION_DOT = .35699E-3
MEAN_MOTION_DDOT = 0

