SL-4 R/B                
1 39679U 14021B   26004.17804360  .00016278  00000+0  37936-3 0  9997
2 39679  51.6091 291.5035 0100010 227.4099 131.8415 15.37282910646342
YAOGAN-29               
1 41038U 15069A   26004.28935196  .00000893  00000+0  11682-3 0  9992
2 41038  98.0198  32.5317 0001627 146.6743 213.4573 14.82912675546332
ASTRO-H (HITOMI)        
1 41337U 16012A   26004.23976686  .00004599  00000+0  27383-3 0  9999
2 41337  31.0013  52.3012 0009563  45.2231 314.9184 15.09531237542480
CZ-2C R/B               
1 43521U 18054D   26004.33899352  .00147003  00000+0  75230-3 0  9991
2 43521  35.1340  27.0607 0011715  10.3488 349.7486 15.79787346418623
SAOCOM 1A               
1 43641U 18076A   26004.28794784  .00000243  00000+0  37036-4 0  9992
2 43641  97.8840 193.3815 0001417  82.3832 277.7542 14.82163592391823
H-2A R/B                
1 43682U 18084L   26004.14099623  .00027228  00000+0  71243-3 0  9990
2 43682  98.8759 207.8802 0025944 247.4620 112.3874 15.38377352395846
SAOCOM 1B               
1 46265U 20059A   26004.31917352  .00000406  00000+0  57493-4 0  9993
2 46265  97.8837 192.5118 0001430  83.8515 276.2861 14.82167364289218
CSS (TIANHE)            
1 48274U 21035A   26004.12649210  .00023377  00000+0  28186-3 0  9992
2 48274  41.4654 240.7044 0010598 216.1453 143.8670 15.60161015267524
COSMOS 2550             
1 48865U 21056A   26004.22266258 -.00000168  00000+0  73225-6 0  9990
2 48865  67.1440 235.9293 0008431 269.5778  90.4411 15.33829933253575
CZ-2C R/B               
1 52794U 22058K   26004.19031067  .00035699  00000+0  60828-3 0  9991
2 52794  50.1911 288.9531 0043768 290.4488  69.1784 15.49899082200119
